CCSDS_OEM_VERS = 2.0  
CREATION_DATE  = 2023-05-24T07:36:05
ORIGINATOR     = ESOC/OPS-GFA                            
 
 



META_START
OBJECT_NAME          = LISA                                    
OBJECT_ID            = -1000                                   
CENTER_NAME          = SUN                     
REF_FRAME            = EME2000 
TIME_SYSTEM          = TDB
START_TIME           = 2035-09-12T12:00:00.00000000            
STOP_TIME            = 2046-06-13T01:04:47.99999985            
INTERPOLATION        = HERMITE                                 
INTERPOLATION_DEGREE = 7                                       
META_STOP

2038-07-24T22:35:10.18450964    34429231.236126  -133225906.731682   -58168596.613741  29.0541465   6.0901342   2.8975331    -0.000001370263     0.000005302979     0.000002315368
2038-07-28T07:01:46.10494096    42781087.070940  -131240960.936502   -57232912.098588  28.6092479   7.6142332   3.5625821    -0.000001701339     0.000005219798     0.000002276304
2038-07-31T15:28:22.02537227    50990302.191829  -128818373.552670   -56106376.222224  28.0693456   9.1117266   4.2152212    -0.000002026193     0.000005119297     0.000002229692
2038-08-03T23:54:57.94580342    59029640.227107  -125966570.806076   -54792897.059954  27.4363974  10.5776541   4.8532901    -0.000002343754     0.000005001869     0.000002175712
2038-08-07T08:21:33.86623473    66872475.440004  -122695397.242962   -53297000.048537  26.7126668  12.0071777   5.4746843    -0.000002652982     0.000004867964     0.000002114569
2038-08-10T16:48:19.96412700    74493145.201724  -119015943.453330   -51623749.676081  25.9006836  13.3956447   6.0773827    -0.000002952881     0.000004718076     0.000002046489
2038-08-14T01:15:06.06201926    81866223.821759  -114940884.368605   -49778903.523073  25.0033174  14.7384556   6.6593900    -0.000003242473     0.000004552762     0.000001971722
2038-08-17T09:41:52.15991153    88967429.564951  -110484081.264187   -47768730.626867  24.0236883  16.0312285   7.2188087    -0.000003520832     0.000004372621     0.000001890539
2038-08-20T18:08:38.25780379    95773421.585775  -105660638.016527   -45600037.738632  22.9651785  17.2697617   7.7538221    -0.000003787074     0.000004178297     0.000001803230
2038-08-24T02:41:01.67297523   102269239.890407  -100480624.571369   -43277358.328407  21.8300569  18.4513857   8.2632768    -0.000004040648     0.000003970229     0.000001709991
2038-08-27T11:13:25.08814651   108425468.748789   -94966934.775127   -40810963.349561  20.6233919  19.5708080   8.7448910    -0.000004280444     0.000003749362     0.000001611245
2038-08-30T19:45:48.50331795   114221954.815495   -89138131.116459   -38209151.777920  19.3492874  20.6244282   9.1971174    -0.000004505719     0.000003516463     0.000001507335
2038-09-03T04:18:11.91848923   119639763.995651   -83013786.924632   -35480656.477972  18.0120550  21.6088729   9.6185098    -0.000004715783     0.000003272332     0.000001398616
2038-09-06T13:04:11.80680496   124674806.820063   -76596031.127528   -32626443.121132  16.6121900  22.5234688  10.0087768    -0.000004910520     0.000003017069     0.000001285134
2038-09-09T21:50:11.69512070   129294824.154562   -69923275.856749   -29663611.553612  15.1580924  23.3624286  10.3654453    -0.000005088730     0.000002752214     0.000001167573
2038-09-13T06:36:11.58343628   133484754.175817   -63017906.195722   -26602097.799305  13.6546468  24.1230920  10.6873866    -0.000005249879     0.000002478656     0.000001046328
2038-09-16T15:22:11.47175201   137230975.756621   -55903042.530189   -23452149.186774  12.1068838  24.8030614  10.9735880    -0.000005393493     0.000002197311     0.000000921804
2038-09-20T00:35:51.66547042   140538809.748675   -48560288.858806   -20205655.301321  10.5108001  25.4033761  11.2244744    -0.000005519820     0.000001907449     0.000000793679
2038-09-23T09:49:31.85918883   143374778.179905   -41054472.511560   -16891311.918674   8.8804758  25.9180331  11.4375222    -0.000005627624     0.000001611621     0.000000663080
2038-09-26T19:03:12.05290724   145729665.424337   -33410882.665583   -13520283.350807   7.2213735  26.3454310  11.6120716    -0.000005716602     0.000001310806     0.000000530442
2038-09-30T04:16:52.24662565   147595864.080857   -25655234.876685   -10103908.406335   5.5390354  26.6842560  11.7475895    -0.000005786508     0.000001005996     0.000000396199
2038-10-03T13:05:25.76611481   148961607.445145   -17854165.364696    -6671507.222435   3.8478614  26.9324327  11.8432777    -0.000005836949     0.000000699780     0.000000261491
2038-10-06T21:53:59.28560398   149833501.032344    -9993886.923319    -3216980.917732   2.1448008  27.0912153  11.8996626    -0.000005868212     0.000000391586     0.000000126065
2038-10-10T06:42:32.80509315   150208899.951251    -2100475.152144      248212.422745   0.4354431  27.1601722  11.9165984    -0.000005880235     0.000000082403    -0.000000009645
2038-10-13T15:31:06.32458231   150086786.054647     5799910.329274     3712590.529775  -1.2746125  27.1391597  11.8940656    -0.000005873015    -0.000000226780    -0.000000145205
2038-10-16T23:56:32.05860752   149471900.087703    13643600.215887     7148263.187984  -2.9716608  27.0290625  11.8325591    -0.000005846778    -0.000000533512    -0.000000279541
2038-10-20T08:21:57.79263272   148367038.941945    21442581.953683    10560510.204450  -4.6583743  26.8304164  11.7322931    -0.000005801647    -0.000000838302    -0.000000412879
2038-10-23T16:47:23.52665808   146775984.993073    29171313.332426    13938157.510222  -6.3293054  26.5439224  11.5936174    -0.000005737788    -0.000001140194    -0.000000544800
2038-10-27T01:12:49.26068329   144704089.116494    36804494.480943    17270149.548848  -7.9790628  26.1705566  11.4170023    -0.000005655424    -0.000001438242    -0.000000674891
2038-10-30T09:43:10.60643379   142155415.139954    44324748.771713    20548896.098995  -9.6039696  25.7110554  11.2027993    -0.000005554719    -0.000001731810    -0.000000802874
2038-11-02T18:13:31.95218430   139140290.114716    51699577.081150    23760222.564722 -11.1970824  25.1672765  10.9518774    -0.000005436079    -0.000002019674    -0.000000928215
2038-11-06T02:43:53.29793480   135668677.020980    58904806.517530    26893603.633801 -12.7532576  24.5410047  10.6650594    -0.000005299888    -0.000002300930    -0.000001050521
2038-11-09T11:14:14.64368531   131752011.922548    65916818.276816    29938768.504463 -14.2674703  23.8342827  10.3432805    -0.000005146581    -0.000002574699    -0.000001169410
2038-11-12T19:55:09.77830191   127393195.417768    72727230.936466    32892063.451178 -15.7379831  23.0476052   9.9867714    -0.000004976254    -0.000002840693    -0.000001284756
2038-11-16T04:36:04.91291835   122614674.839183    79298055.573148    35737000.283917 -17.1566623  22.1849876   9.5973563    -0.000004789762    -0.000003097467    -0.000001395932
2038-11-19T13:17:00.04753495   117432179.646640    85607635.741127    38464202.381495 -18.5188963  21.2492263   9.1762981    -0.000004587689    -0.000003344208    -0.000001502586
2038-11-22T21:57:55.18215139   111862752.713378    91635160.265142    41064674.110156 -19.8202509  20.2433497   8.7249594    -0.000004370671    -0.000003580136    -0.000001604380
2038-11-26T06:40:43.08698038   105922323.560151    97362892.808494    43530759.877233 -21.0569489  19.1701794   8.2446074    -0.000004139290    -0.000003804583    -0.000001701027
2038-11-29T15:23:30.99180937    99632510.703818   102769491.881083    45853267.069341 -22.2244271  18.0335607   7.7369642    -0.000003894350    -0.000004016739    -0.000001792177
2038-12-03T00:06:18.89663852    93013989.124113   107837050.410777    48024502.157479 -23.3188559  16.8371651   7.2036701    -0.000003636616    -0.000004215921    -0.000001877537
2038-12-06T08:49:06.80146751    86088513.456298   112548755.482472    50037259.947463 -24.3366331  15.5848571   6.6464482    -0.000003366889    -0.000004401484    -0.000001956829
2038-12-09T17:40:56.16335225    78865165.425682   116896676.456593    51888132.577316 -25.2760662  14.2782069   6.0660004    -0.000003085477    -0.000004573128    -0.000002029925
2038-12-13T02:32:45.52523684    71380412.426169   120857154.016648    53567026.395365 -26.1320552  12.9237372   5.4652274    -0.000002793755    -0.000004729926    -0.000002096429
2038-12-16T11:24:34.88712158    63658969.976949   124416904.510114    55068307.294965 -26.9017310  11.5258472   4.8460813    -0.000002492638    -0.000004871353    -0.000002156118
2038-12-19T20:16:24.24900632    55726349.449261   127563945.456373    56386918.096189 -27.5824958  10.0890822   4.2105759    -0.000002183073    -0.000004996931    -0.000002208790
2038-12-23T05:31:31.68070332    47569389.666662   130299682.016076    57523372.680369 -28.1746396   8.6109812   3.5576295    -0.000001864498    -0.000005106712    -0.000002254462
2038-12-26T14:46:39.11240031    39252948.837335   132598605.140800    58466987.119761 -28.6726185   7.1032210   2.8924071    -0.000001539398    -0.000005199663    -0.000002292701
2038-12-30T00:01:46.54409731    30804835.188961   134452764.783222    59214490.854612 -29.0746761   5.5707755   2.2171040    -0.000001208818    -0.000005275444    -0.000002323366
2039-01-02T09:16:53.97579430    22253325.946785   135855678.427816    59763260.676178 -29.3793642   4.0187099   1.5339532    -0.000000873821    -0.000005333770    -0.000002346341
2039-01-05T18:00:25.17228004    13683176.023514   136797698.300418    60109724.770204 -29.5845318   2.4623570   0.8496968    -0.000000537694    -0.000005374198    -0.000002361457
2039-01-09T02:43:56.36876594     5067630.831809   137285964.989487    60256806.886049 -29.6916696   0.8968142   0.1621729    -0.000000199356    -0.000005396989    -0.000002368819
2039-01-12T11:27:27.56525168    -3564743.223047   137318554.952618    60203885.754522 -29.7002938  -0.6727736  -0.5263581     0.000000140099    -0.000005402021    -0.000002368382
